SWISSCUBE               
1 35932U 09051B   24136.58872331  .00002915  00000+0  63142-3 0  9995
2 35932  98.4753  19.2449 0008569  63.4460 296.7616 14.58955306777802
